STARLINK-2196           
1 47773U 21017BD  26068.71794066 -.00004595  00000+0 -14318-3 0  9995
2 47773  53.1609 216.5872 0001268  64.4271 295.6860 15.30182626277664
TRANSPORTER-12 OBJECT AZ
1 62656U 25009AZ  26068.71026235  .00016057  00000+0  54903-3 0  9991
2 62656  97.3981 151.9913 0000987  45.3581 314.7740 15.30349724 63792
